
ICEYE-X31
1 58288U 23174AJ  26170.28886348  .00014911  00000+0  45018-3 0  9997
2 58288  97.3778 246.0289 0000994 331.8528  28.2661 15.34359997145074

ICEYE-X33
1 60548U 24149CJ  26169.76919259  .00003736  00000+0  29832-3 0  9990
2 60548  97.7286 248.9010 0001907  91.1844 268.9598 15.00875914100448

ICEYE-X34
1 58294U 23174AQ  26170.22019386  .00079284  00000+0  79330-3 0  9996
2 58294  97.3877 261.5160 0004601 175.4122 184.7180 15.65312736146060

ICEYE-X35
1 58302U 23174AY  26170.30342271  .00044533  00000+0  72162-3 0  9992
2 58302  97.3790 254.9339 0009564 185.9356 174.1785 15.52609471145677

ICEYE-X36
1 59103U 24043F   26170.17643372  .00003000  00000+0  20538-3 0  9993
2 59103  97.8379 308.2826 0004755 325.1060  34.9855 15.06878417125447

ICEYE-X37
1 59102U 24043E   26170.17377640  .00002861  00000+0  19966-3 0  9991
2 59102  97.8322 307.2054 0015152   8.9859 351.1636 15.06132069125381

ICEYE-X38
1 59100U 24043C   26170.30017801  .00003751  00000+0  21717-3 0  9990
2 59100  97.8410 314.1046 0003872  84.8223 275.3449 15.12870435111993

ICEYE-X39
1 60546U 24149CG  26170.21177202  .00002525  00000+0  20825-3 0  9992
2 60546  97.6758 247.2078 0005517 113.5675 246.6128 14.99906138100427

ICEYE-X4
1 44390U 19038D   26170.29167564  .00009652  00000+0  34144-3 0  9997
2 44390  97.8755 203.3275 0011453 298.8381  61.1707 15.29333629382129

ICEYE-X40
1 60549U 24149CK  26170.17297127  .00001738  00000+0  15225-3 0  9992
2 60549  97.6821 246.6369 0006508  76.3129 283.8818 14.97949995100377

ICEYE-X41
1 62700U 25009CV  26170.20948017  .00002483  00000+0  22219-3 0  9993
2 62700  97.7062 249.7063 0001952  51.1621 308.9774 14.96761364 77719

ICEYE-X42
1 62698U 25009CT  26170.21911133  .00001745  00000+0  17830-3 0  9992
2 62698  97.7398 248.4975 0001353  90.8797 269.2577 14.91854969 77599

ICEYE-X43
1 60539U 24149BZ  26170.23059693  .00003224  00000+0  26638-3 0  9994
2 60539  97.6790 247.1670 0008283  78.9563 281.2591 14.99629405100423

ICEYE-X44
1 62707U 25009DC  26170.22574099  .00002762  00000+0  25116-3 0  9996
2 62707  97.7054 249.3193 0002768 113.1736 246.9777 14.96025770100242

ICEYE-X45
1 62705U 25009DA  26170.19628340  .00002802  00000+0  22525-3 0  9995
2 62705  97.8330 256.8985 0001235  81.5927 278.5437 15.00847842 77984

ICEYE-X46
1 63258U 25052BA  26170.22906755  .00000847  00000+0  82013-4 0  9996
2 63258  97.6888  62.0838 0001652  85.8528 274.2882 14.95293531 68952

ICEYE-X47
1 62389U 24247N   26170.19140616  .00003735  00000+0  22047-3 0  9996
2 62389  44.9986 346.2936 0002455 256.5895 103.4709 15.13288527 82487

ICEYE-X48
1 63253U 25052AV  26170.26066335  .00002499  00000+0  21667-3 0  9998
2 63253  97.6885  62.4167 0002307 139.1169 221.0226 14.97980661 68989

ICEYE-X49
1 62384U 24247H   26170.21557126  .00003723  00000+0  22154-3 0  9998
2 62384  44.9994 346.5651 0001203 266.8181  93.2558 15.12999905 82486

ICEYE-X50
1 63255U 25052AX  26170.29922721  .00001370  00000+0  12952-3 0  9997
2 63255  97.6889  62.1543 0001853 153.2443 206.8874 14.95284179 68964

ICEYE-X51
1 63257U 25052AZ  26170.25784683  .00003512  00000+0  28074-3 0  9990
2 63257  97.7557  65.3480 0001906  68.6656 291.4771 15.00880249 69119

ICEYE-X52
1 64572U 25135AW  26170.28070788  .00001487  00000+0  14640-3 0  9993
2 64572  97.7748 284.5059 0001476  11.9705 348.1550 14.93566816 54196

ICEYE-X53
1 64584U 25135BJ  26170.29118975  .00002645  00000+0  21244-3 0  9993
2 64584  97.7387 287.0662 0001147 157.1797 202.9478 15.00906357 54390

ICEYE-X54
1 64570U 25135AU  26170.30072309  .00001806  00000+0  17237-3 0  9995
2 64570  97.7726 284.7028 0001229 336.2044  23.9119 14.94546114 54215

ICEYE-X55
1 64581U 25135BF  26170.30687311  .00002214  00000+0  20661-3 0  9991
2 64581  97.7745 285.0899 0002776   4.5972 355.5273 14.95216892 54236

ICEYE-X56
1 64574U 25135AY  26170.30633971  .00002062  00000+0  19085-3 0  9995
2 64574  97.7745 285.2474 0001445   3.1362 356.9867 14.95617314 54248

ICEYE-X57
1 64578U 25135BC  26170.26672869  .00003533  00000+0  28256-3 0  9997
2 64578  97.7955 286.7345 0001933  61.8012 298.3406 15.00865109 54335

ICEYE-X58
1 66751U 25276CP  26170.09932296  .00002585  00000+0  13180-3 0  9998
2 66751  97.4198 243.5073 0002486  14.7400 345.3906 15.17635530 30701

ICEYE-X59
1 66752U 25276CQ  26170.08182492  .00003794  00000+0  29753-3 0  9999
2 66752  97.4316 241.2964 0001624  88.9105 271.2306 15.01523546 30556

ICEYE-X6
1 46497U 20068M   26170.25306892  .00002549  00000+0  18658-3 0  9997
2 46497  98.0981 164.0232 0008888  85.2410 274.9830 15.04535565313545

ICEYE-X60
1 66753U 25276CR  26169.91345023  .00003720  00000+0  22488-3 0  9998
2 66753  97.4196 242.5318 0003136  53.0709 307.0808 15.11261037 30621

ICEYE-X61
1 66754U 25276CS  26170.20327510  .00002726  00000+0  13571-3 0  9992
2 66754  97.4198 243.6560 0002670   2.8773 357.2476 15.18423032 30721

ICEYE-X62
1 66755U 25276CT  26170.18385652  .00001486  00000+0  95182-4 0  9992
2 66755  97.4202 242.3296 0002640  32.8501 327.2892 15.10034561 30635

ICEYE-X63
1 67372U 26004K   26170.23319828  .00000742  00000+0  86093-4 0  9991
2 67372  97.8000 168.8405 0005624 114.3378 245.8426 14.88304241 23604

ICEYE-X64
1 67373U 26004L   26170.27547939  .00001009  00000+0  11600-3 0  9990
2 67373  97.8015 168.8120 0007291 121.4263 238.7667 14.87926576 23607

ICEYE-X65
1 66300U 25248H   26170.20217778  .00001410  00000+0  10682-3 0  9991
2 66300  45.4048 123.5755 0004775  33.0844 327.0336 15.07758198 35828

ICEYE-X66
1 66301U 25248J   26170.22134408  .00001541  00000+0  11162-3 0  9991
2 66301  45.4016 122.8266 0004574  26.1579 333.9533 15.08998467 35818

ICEYE-X67
1 66302U 25248K   26170.24570475  .00001547  00000+0  11204-3 0  9995
2 66302  45.4053 122.2641 0005998  33.1541 326.9716 15.08976085 35838

ICEYE-X7
1 46496U 20068L   26170.29772722  .00010175  00000+0  33628-3 0  9997
2 46496  97.7499 136.9201 0006212 335.0681  25.0259 15.31564142315111

ICEYE-X71
1 68494U 26067CG  26170.14113298  .00001782  00000+0  18281-3 0  9997
2 68494  97.7610 128.3464 0003191  48.4266 311.7226 14.91673415 12012

ICEYE-X72
1 68504U 26067CS  26170.11923170  .00094686  00000+0  91142-2 0  9995
2 68504  97.7643 128.3895 0002223  87.0725 273.0748 14.92478627 12010

ICEYE-X73
1 68496U 26067CJ  26170.11146669  .00002166  00000+0  21792-3 0  9992
2 68496  97.7610 128.3821 0001062  18.6136 341.5122 14.92231107 12016

ICEYE-X74
1 68500U 26067CN  26170.14027551  .00001727  00000+0  17730-3 0  9998
2 68500  97.7617 128.3538 0003075  46.1607 313.9866 14.91674404 12017

ICEYE-X75
1 68497U 26067CK  26169.77814640  .00000958  00000+0  99695-4 0  9999
2 68497  97.7591 128.0319 0000931  20.6350 339.4907 14.92123724 11964

ICEYE-X76
1 68502U 26067CQ  26170.13598106  .00000647  00000+0  69809-4 0  9993
2 68502  97.7625 128.3653 0002803  41.7958 318.3475 14.91701963 12010

ICEYE-X78
1 68995U 26100R   26170.22192491  .00001655  00000+0  16971-3 0  9995
2 68995  97.7367  67.6401 0003824 107.0016 253.1622 14.91771338  7006

ICEYE-X82
1 68996U 26100S   26170.23654263  .00001661  00000+0  17225-3 0  9997
2 68996  97.7355  67.6179 0005303 126.4179 233.7529 14.91309279  7006

ICO G1
1 32763U 08016A   26170.16166111 -.00000180  00000+0  00000+0 0  9993
2 32763   5.5289  36.1230 0002319  38.8538 157.7614  1.00272894 66564

IHI-SAT2
1 66772U 25276DL  26170.18744247  .00005172  00000+0  23324-3 0  9994
2 66772  97.4231 244.2127 0001781 151.8619 208.2714 15.21455372 30750

IHOPSAT-TD
1 44859U 19089H   26169.99867249  .00002189  00000+0  13052-3 0  9998
2 44859  36.9680  27.4999 0006162 260.8023  99.2026 15.11824966358265

IMAGE
1 26113U 00017A   26162.34581823  .00000011  00000+0  22926-1 0  9995
2 26113  94.2241 315.2958 7436383 288.4674   8.8959  1.68665984161407

IMECE
1 56178U 23054A   26170.27040922  .00000234  00000+0  51662-4 0  9995
2 56178  98.1228  75.0653 0010044 156.3335 203.8333 14.65849068170719

INMARSAT 3-F1
1 23839U 96020A   26170.16079444 -.00000116  00000+0  00000+0 0  9990
2 23839  10.6048  46.6165 0003780  54.6769 126.7309  0.99978375110275

INMARSAT 3-F2
1 24307U 96053A   26169.56147884 -.00000279  00000+0  00000+0 0  9993
2 24307   9.8598  53.9229 0006657  31.2340 171.8212  1.00002766108939

INMARSAT 3-F3
1 24674U 96070A   26169.86325787  .00000126  00000+0  00000+0 0  9992
2 24674  10.3216  49.6375 0003313  27.1826 181.8229  0.99983201107929

INMARSAT 3-F5
1 25153U 98006B   26170.09799882 -.00000301  00000+0  00000+0 0  9990
2 25153   9.6979  53.2429 0004884  44.3372 150.9888  1.00275064103918

INMARSAT 4-F1
1 28628U 05009A   26169.78757057  .00000024  00000+0  00000+0 0  9994
2 28628   5.1714  42.7664 0002613  44.2002 281.6887  1.00271302 77683

INMARSAT 4-F2
1 28899U 05044A   26169.99455471 -.00000269  00000+0  00000+0 0  9993
2 28899   5.0979  43.7024 0002992  36.2700 328.7738  1.00272203 75544

INMARSAT 4-F3
1 33278U 08039A   26170.23190550 -.00000148  00000+0  00000+0 0  9996
2 33278   4.2948  31.6325 0002804  60.1005 161.2136  1.00271383 46564

INMARSAT 5-F1
1 39476U 13073A   26170.12115858  .00000022  00000+0  00000+0 0  9992
2 39476   0.0175  16.3994 0000681 330.1252  27.0669  1.00271254 45592

INMARSAT 5-F2
1 40384U 15005A   26170.24044766 -.00000292  00000+0  00000+0 0  9991
2 40384   0.0189   9.1922 0000705 276.6774  13.1563  1.00266940 41016

INMARSAT 5-F3
1 40882U 15042A   26170.14436731  .00000044  00000+0  00000+0 0  9995
2 40882   0.0179  16.0850 0000160  24.5770  98.3032  1.00269815 39596

INMARSAT 5-F4
1 42698U 17025A   26169.47829941  .00000069  00000+0  00000+0 0  9995
2 42698   0.0173  18.0434 0000618 337.7045 139.6424  1.00273392 33299

INMARSAT 6-F1
1 50319U 21128A   26169.84022277 -.00000178  00000+0  00000+0 0  9993
2 50319   0.0186 327.5438 0000303 244.7765  80.9907  1.00270212 16272

INMARSAT GX5
1 44801U 19080B   26169.73373889  .00000069  00000+0  00000+0 0  9990
2 44801   0.0349   1.4048 0002345 101.2945  79.4614  1.00273686  6806
